{"type": "FeatureCollection", "features": [ {"type": "Feature", "properties": {"norad_id": 32461, "name": "FENGYUN 1C DEB", "group": "fengyun-1c-debris", "lat": -39.43263420427854, "lon": -144.22403925701255, "alt_km": 1115.6470986687555, "timestamp": "2025-12-20T16:47:36.573151+00:00", "meta": {"OBJECT_NAME": "FENGYUN 1C DEB", "OBJECT_ID": "1999-025DBZ", "EPOCH": "2025-12-17T02:15:31.192128", "MEAN_MOTION": 13.72843893, "ECCENTRICITY": 0.02323804, "INCLINATION": 98.3342, "RA_OF_ASC_NODE": 205.71, "ARG_OF_PERICENTER": 105.2455, "MEAN_ANOMALY": 46.6373, "EPHEMERIS_TYPE": 0, "CLASSIFICATION_TYPE": "U", "NORAD_CAT_ID": 32461, "ELEMENT_SET_NO": 999, "REV_AT_EPOCH": 67354, "BSTAR": 0.0011039273, "MEAN_MOTION_DOT": 1.2e-05, "MEAN_MOTION_DDOT": 0}, "tle": {"line1": "1 32461U 99025DBZ 25351.09411102  .00001200  00000+0  11039-2 0  9993", "line2": "2 32461  98.3342 205.7100 0232380 105.2455  46.6373 13.72843893673544"}}, "geometry": {"type": "Point", "coordinates": [-144.22403925701255, -39.43263420427854]}}, {"type": "Feature", "properties": {"norad_id": 32464, "name": "FENGYUN 1C DEB", "group": "fengyun-1c-debris", "lat": -62.20356503474456, "lon": -175.680901284952, "alt_km": 530.1487446558303, "timestamp": "2025-12-20T16:47:36.573161+00:00", "meta": {"OBJECT_NAME": "FENGYUN 1C DEB", "OBJECT_ID": "1999-025DCC", "EPOCH": "2025-12-16T07:09:36.734976", "MEAN_MOTION": 14.9303829, "ECCENTRICITY": 0.01123489, "INCLINATION": 97.3567, "RA_OF_ASC_NODE": 14.3879, "ARG_OF_PERICENTER": 224.0102, "MEAN_ANOMALY": 135.2133, "EPHEMERIS_TYPE": 0, "CLASSIFICATION_TYPE": "U", "NORAD_CAT_ID": 32464, "ELEMENT_SET_NO": 999, "REV_AT_EPOCH": 60845, "BSTAR": 0.00088160326, "MEAN_MOTION_DOT": 0.00010328, "MEAN_MOTION_DDOT": 0}, "tle": {"line1": "1 32464U 99025DCC 25350.29834184  .00010328  00000+0  88160-3 0  9997", "line2": "2 32464  97.3567  14.3879 0112348 224.0102 135.2133 14.93038290608450"}}, "geometry": {"type": "Point", "coordinates": [-175.680901284952, -62.20356503474456]}}, {"type": "Feature", "properties": {"norad_id": 33502, "name": "FENGYUN 1C DEB", "group": "fengyun-1c-debris", "lat": -62.6984057179083, "lon": 99.70397188473024, "alt_km": 849.258734663822, "timestamp": "2025-12-20T16:47:36.573173+00:00", "meta": {"OBJECT_NAME": "FENGYUN 1C DEB", "OBJECT_ID": "1999-025DCF", "EPOCH": "2025-12-19T09:49:30.137376", "MEAN_MOTION": 14.21927653, "ECCENTRICITY": 0.007979, "INCLINATION": 99.0263, "RA_OF_ASC_NODE": 296.3199, "ARG_OF_PERICENTER": 133.4037, "MEAN_ANOMALY": 348.2674, "EPHEMERIS_TYPE": 0, "CLASSIFICATION_TYPE": "U", "NORAD_CAT_ID": 33502, "ELEMENT_SET_NO": 999, "REV_AT_EPOCH": 87050, "BSTAR": 0.0016868, "MEAN_MOTION_DOT": 3.8e-05, "MEAN_MOTION_DDOT": 0}, "tle": {"line1": "1 33502U 99025DCF 25353.40937659  .00003800  00000+0  16868-2 0  9990", "line2": "2 33502  99.0263 296.3199 0079790 133.4037 348.2674 14.21927653870500"}}, "geometry": {"type": "Point", "coordinates": [99.70397188473024, -62.6984057179083]}}, {"type": "Feature", "properties": {"norad_id": 33599, "name": "FENGYUN 1C DEB", "group": "fengyun-1c-debris", "lat": -25.907473926278954, "lon": 64.66741786115674, "alt_km": 482.58260722092473, "timestamp": "2025-12-20T16:47:36.573183+00:00", "meta": {"OBJECT_NAME": "FENGYUN 1C DEB", "OBJECT_ID": "1999-025DCG", "EPOCH": "2025-12-06T10:36:41.156064", "MEAN_MOTION": 15.14898296, "ECCENTRICITY": 0.0126212, "INCLINATION": 96.6136, "RA_OF_ASC_NODE": 49.0151, "ARG_OF_PERICENTER": 322.3863, "MEAN_ANOMALY": 36.8593, "EPHEMERIS_TYPE": 0, "CLASSIFICATION_TYPE": "U", "NORAD_CAT_ID": 33599, "ELEMENT_SET_NO": 999, "REV_AT_EPOCH": 65908, "BSTAR": 0.0016783, "MEAN_MOTION_DOT": 0.00038297, "MEAN_MOTION_DDOT": 0}, "tle": {"line1": "1 33599U 99025DCG 25340.44214301  .00038297  00000+0  16783-2 0  9992", "line2": "2 33599  96.6136  49.0151 0126212 322.3863  36.8593 15.14898296659088"}}, "geometry": {"type": "Point", "coordinates": [64.66741786115674, -25.907473926278954]}}, {"type": "Feature", "properties": {"norad_id": 33601, "name": "FENGYUN 1C DEB", "group": "fengyun-1c-debris", "lat": -60.290547211416005, "lon": -44.57828439039869, "alt_km": 931.9100711310384, "timestamp": "2025-12-20T16:47:36.573193+00:00", "meta": {"OBJECT_NAME": "FENGYUN 1C DEB", "OBJECT_ID": "1999-025DCJ", "EPOCH": "2025-12-19T08:57:54.014976", "MEAN_MOTION": 14.07941044, "ECCENTRICITY": 0.0158401, "INCLINATION": 98.3141, "RA_OF_ASC_NODE": 149.0481, "ARG_OF_PERICENTER": 123.7505, "MEAN_ANOMALY": 237.8873, "EPHEMERIS_TYPE": 0, "CLASSIFICATION_TYPE": "U", "NORAD_CAT_ID": 33601, "ELEMENT_SET_NO": 999, "REV_AT_EPOCH": 90773, "BSTAR": 0.0010024, "MEAN_MOTION_DOT": 1.872e-05, "MEAN_MOTION_DDOT": 0}, "tle": {"line1": "1 33601U 99025DCJ 25353.37354184  .00001872  00000+0  10024-2 0  9997", "line2": "2 33601  98.3141 149.0481 0158401 123.7505 237.8873 14.07941044907738"}}, "geometry": {"type": "Point", "coordinates": [-44.57828439039869, -60.290547211416005]}}, {"type": "Feature", "properties": {"norad_id": 33603, "name": "FENGYUN 1C DEB", "group": "fengyun-1c-debris", "lat": 4.372054267947063, "lon": 111.8340453257387, "alt_km": 724.8675095555936, "timestamp": "2025-12-20T16:47:36.573205+00:00", "meta": {"OBJECT_NAME": "FENGYUN 1C DEB", "OBJECT_ID": "1999-025DCL", "EPOCH": "2025-12-17T02:01:19.238016", "MEAN_MOTION": 14.79943071, "ECCENTRICITY": 0.02204054, "INCLINATION": 98.8049, "RA_OF_ASC_NODE": 287.1909, "ARG_OF_PERICENTER": 58.8724, "MEAN_ANOMALY": 303.3901, "EPHEMERIS_TYPE": 0, "CLASSIFICATION_TYPE": "U", "NORAD_CAT_ID": 33603, "ELEMENT_SET_NO": 999, "REV_AT_EPOCH": 98924, "BSTAR": 0.00019375833, "MEAN_MOTION_DOT": 2.138e-05, "MEAN_MOTION_DDOT": 0}, "tle": {"line1": "1 33603U 99025DCL 25351.08425044  .00002138  00000+0  19376-3 0  9995", "line2": "2 33603  98.8049 287.1909 0220405  58.8724 303.3901 14.79943071989244"}}, "geometry": {"type": "Point", "coordinates": [111.8340453257387, 4.372054267947063]}}, {"type": "Feature", "properties": {"norad_id": 33605, "name": "FENGYUN 1C DEB", "group": "fengyun-1c-debris", "lat": 8.65055293040974, "lon": 174.76049348314424, "alt_km": 888.2613851534261, "timestamp": "2025-12-20T16:47:36.573215+00:00", "meta": {"OBJECT_NAME": "FENGYUN 1C DEB", "OBJECT_ID": "1999-025DCN", "EPOCH": "2025-12-10T07:01:31.719072", "MEAN_MOTION": 14.0776111, "ECCENTRICITY": 0.0057186, "INCLINATION": 98.6977, "RA_OF_ASC_NODE": 343.4026, "ARG_OF_PERICENTER": 81.9564, "MEAN_ANOMALY": 295.3635, "EPHEMERIS_TYPE": 0, "CLASSIFICATION_TYPE": "U", "NORAD_CAT_ID": 33605, "ELEMENT_SET_NO": 999, "REV_AT_EPOCH": 59784, "BSTAR": 0.00085517, "MEAN_MOTION_DOT": 1.428e-05, "MEAN_MOTION_DDOT": 0}, "tle": {"line1": "1 33605U 99025DCN 25344.29272823  .00001428  00000+0  85517-3 0  9998", "line2": "2 33605  98.6977 343.4026 0057186  81.9564 295.3635 14.07761110597841"}}, "geometry": {"type": "Point", "coordinates": [174.76049348314424, 8.65055293040974]}}, {"type": "Feature", "properties": {"norad_id": 33612, "name": "FENGYUN 1C DEB", "group": "fengyun-1c-debris", "lat": 27.916654125685362, "lon": -41.107962289948325, "alt_km": 834.8840049114406, "timestamp": "2025-12-20T16:47:36.573225+00:00", "meta": {"OBJECT_NAME": "FENGYUN 1C DEB", "OBJECT_ID": "1999-025DCV", "EPOCH": "2025-12-13T20:28:43.869792", "MEAN_MOTION": 14.04084486, "ECCENTRICITY": 0.01112826, "INCLINATION": 98.5972, "RA_OF_ASC_NODE": 317.0094, "ARG_OF_PERICENTER": 105.6891, "MEAN_ANOMALY": 255.6586, "EPHEMERIS_TYPE": 0, "CLASSIFICATION_TYPE": "U", "NORAD_CAT_ID": 33612, "ELEMENT_SET_NO": 999, "REV_AT_EPOCH": 56689, "BSTAR": 0.0022025481, "MEAN_MOTION_DOT": 3.646e-05, "MEAN_MOTION_DDOT": 0}, "tle": {"line1": "1 33612U 99025DCV 25347.85328553  .00003646  00000+0  22025-2 0  9991", "line2": "2 33612  98.5972 317.0094 0111282 105.6891 255.6586 14.04084486566896"}}, "geometry": {"type": "Point", "coordinates": [-41.107962289948325, 27.916654125685362]}}, {"type": "Feature", "properties": {"norad_id": 33613, "name": "FENGYUN 1C DEB", "group": "fengyun-1c-debris", "lat": -71.64142380965828, "lon": 93.91348653988585, "alt_km": 804.371096312123, "timestamp": "2025-12-20T16:47:36.573235+00:00", "meta": {"OBJECT_NAME": "FENGYUN 1C DEB", "OBJECT_ID": "1999-025DCW", "EPOCH": "2025-12-16T22:39:46.027872", "MEAN_MOTION": 14.33243029, "ECCENTRICITY": 0.00302029, "INCLINATION": 98.6973, "RA_OF_ASC_NODE": 62.6736, "ARG_OF_PERICENTER": 76.3387, "MEAN_ANOMALY": 284.1157, "EPHEMERIS_TYPE": 0, "CLASSIFICATION_TYPE": "U", "NORAD_CAT_ID": 33613, "ELEMENT_SET_NO": 999, "REV_AT_EPOCH": 64570, "BSTAR": 0.001526734, "MEAN_MOTION_DOT": 4.177e-05, "MEAN_MOTION_DDOT": 0}, "tle": {"line1": "1 33613U 99025DCW 25350.94428273  .00004177  00000+0  15267-2 0  9996", "line2": "2 33613  98.6973  62.6736 0030202  76.3387 284.1157 14.33243029645702"}}, "geometry": {"type": "Point", "coordinates": [93.91348653988585, -71.64142380965828]}}, {"type": "Feature", "properties": {"norad_id": 33618, "name": "FENGYUN 1C DEB", "group": "fengyun-1c-debris", "lat": -75.06495045659825, "lon": 116.54056880664346, "alt_km": 806.6428151829359, "timestamp": "2025-12-20T16:47:36.573245+00:00", "meta": {"OBJECT_NAME": "FENGYUN 1C DEB", "OBJECT_ID": "1999-025DDB", "EPOCH": "2025-12-20T12:13:52.336128", "MEAN_MOTION": 14.62199393, "ECCENTRICITY": 0.0165035, "INCLINATION": 98.5307, "RA_OF_ASC_NODE": 82.0998, "ARG_OF_PERICENTER": 116.4572, "MEAN_ANOMALY": 245.3665, "EPHEMERIS_TYPE": 0, "CLASSIFICATION_TYPE": "U", "NORAD_CAT_ID": 33618, "ELEMENT_SET_NO": 999, "REV_AT_EPOCH": 96897, "BSTAR": 0.00052112, "MEAN_MOTION_DOT": 3.133e-05, "MEAN_MOTION_DDOT": 0}, "tle": {"line1": "1 33618U 99025DDB 25354.50963352  .00003133  00000+0  52112-3 0  9991", "line2": "2 33618  98.5307  82.0998 0165035 116.4572 245.3665 14.62199393968974"}}, "geometry": {"type": "Point", "coordinates": [116.54056880664346, -75.06495045659825]}}]}